STARLINK-36192          
1 67024U 25293X   25353.91668981 -.01372086  55247-3 -37505-2 0  9993
2 67024  69.9940 302.8985 0003829 266.9850 238.1541 15.93919811  1384
STARLINK-36178          
1 67025U 25293Y   25353.91668981 -.01379858  55853-3 -37623-2 0  9992
2 67025  69.9939 302.8958 0003849 266.6881 240.6371 15.93968454  1382
STARLINK-36176          
1 67026U 25293Z   25353.91668981 -.01390544  56711-3 -37722-2 0  9992
2 67026  69.9937 302.8901 0003864 267.3021 244.8769 15.94066285  1389
STARLINK-36171          
1 67027U 25293AA  25353.91668981 -.01385840  56332-3 -37682-2 0  9990
2 67027  69.9936 302.8927 0003779 268.4778 241.6553 15.94021844  1381
STARLINK-36132          
1 67028U 25293AB  25353.91668981 -.01404795  57848-3 -37909-2 0  9997
2 67028  69.9939 302.8842 0003871 267.3402 249.7422 15.94167519  1380
STARLINK-36190          
1 67029U 25293AC  25353.91668981 -.01391785  56830-3 -37669-2 0  9995
2 67029  69.9940 302.8877 0003809 266.4710 247.8823 15.94110443  1382
STARLINK-36138          
1 67030U 25294A   25353.91668981 -.01295194  00000+0 -48353-2 0  9991
2 67030  42.9995 138.3632 0001452 279.3011 196.4461 15.89484113  1306
STARLINK-36150          
1 67031U 25294B   25353.91668981 -.01297379  00000+0 -48339-2 0  9993
2 67031  42.9996 138.3592 0001627 278.8588 198.3855 15.89524653  1469
STARLINK-36131          
1 67032U 25294C   25353.91668981 -.01314779  00000+0 -48849-2 0  9994
2 67032  42.9996 138.3494 0001530 277.5428 203.5469 15.89615499  1305
STARLINK-36137          
1 67033U 25294D   25353.91668981 -.01310605  00000+0 -48772-2 0  9994
2 67033  42.9997 138.3546 0001704 277.5577 201.5828 15.89573887  1304
STARLINK-36140          
1 67034U 25294E   25353.91668981 -.01323275  00000+0 -49093-2 0  9999
2 67034  42.9996 138.3444 0001558 275.1183 208.1015 15.89660762  1305
STARLINK-36085          
1 67035U 25294F   25353.91668981 -.01332583  00000+0 -49277-2 0  9996
2 67035  42.9998 138.3332 0001466 275.3177 212.2313 15.89743703  1301
