CCSDS_OMM_VERS = 2.0
CREATION_DATE  = 
ORIGINATOR     = 

OBJECT_NAME    = STARLINK-36192
OBJECT_ID      = 2025-293X
CENTER_NAME    = EARTH
REF_FRAME      = TEME
TIME_SYSTEM    = UTC
MEAN_ELEMENT_THEORY = SGP/SGP4

EPOCH          = 2025-12-19T22:00:01.999584
MEAN_MOTION    = 15.93919811
ECCENTRICITY   = .00038295
INCLINATION    = 69.9940
RA_OF_ASC_NODE = 302.8985
ARG_OF_PERICENTER = 266.9850
MEAN_ANOMALY   = 238.1541

EPHEMERIS_TYPE = 0
CLASSIFICATION_TYPE = U
NORAD_CAT_ID   = 67024
ELEMENT_SET_NO = 999
REV_AT_EPOCH   = 138
BSTAR          = -.37504752E-2
MEAN_MOTION_DOT = -.1372086E-1
MEAN_MOTION_DDOT = .55246849E-3

CCSDS_OMM_VERS = 2.0
CREATION_DATE  = 
ORIGINATOR     = 

OBJECT_NAME    = STARLINK-36178
OBJECT_ID      = 2025-293Y
CENTER_NAME    = EARTH
REF_FRAME      = TEME
TIME_SYSTEM    = UTC
MEAN_ELEMENT_THEORY = SGP/SGP4

EPOCH          = 2025-12-19T22:00:01.999584
MEAN_MOTION    = 15.93968454
ECCENTRICITY   = .00038492
INCLINATION    = 69.9939
RA_OF_ASC_NODE = 302.8958
ARG_OF_PERICENTER = 266.6881
MEAN_ANOMALY   = 240.6371

EPHEMERIS_TYPE = 0
CLASSIFICATION_TYPE = U
NORAD_CAT_ID   = 67025
ELEMENT_SET_NO = 999
REV_AT_EPOCH   = 138
BSTAR          = -.376226E-2
MEAN_MOTION_DOT = -.1379858E-1
MEAN_MOTION_DDOT = .55853367E-3

CCSDS_OMM_VERS = 2.0
CREATION_DATE  = 
ORIGINATOR     = 

OBJECT_NAME    = STARLINK-36176
OBJECT_ID      = 2025-293Z
CENTER_NAME    = EARTH
REF_FRAME      = TEME
TIME_SYSTEM    = UTC
MEAN_ELEMENT_THEORY = SGP/SGP4

EPOCH          = 2025-12-19T22:00:01.999584
MEAN_MOTION    = 15.94066285
ECCENTRICITY   = .00038641
INCLINATION    = 69.9937
RA_OF_ASC_NODE = 302.8901
ARG_OF_PERICENTER = 267.3021
MEAN_ANOMALY   = 244.8769

EPHEMERIS_TYPE = 0
CLASSIFICATION_TYPE = U
NORAD_CAT_ID   = 67026
ELEMENT_SET_NO = 999
REV_AT_EPOCH   = 138
BSTAR          = -.37721669E-2
MEAN_MOTION_DOT = -.1390544E-1
MEAN_MOTION_DDOT = .56710713E-3

CCSDS_OMM_VERS = 2.0
CREATION_DATE  = 
ORIGINATOR     = 

OBJECT_NAME    = STARLINK-36171
OBJECT_ID      = 2025-293AA
CENTER_NAME    = EARTH
REF_FRAME      = TEME
TIME_SYSTEM    = UTC
MEAN_ELEMENT_THEORY = SGP/SGP4

EPOCH          = 2025-12-19T22:00:01.999584
MEAN_MOTION    = 15.94021844
ECCENTRICITY   = .00037797
INCLINATION    = 69.9936
RA_OF_ASC_NODE = 302.8927
ARG_OF_PERICENTER = 268.4778
MEAN_ANOMALY   = 241.6553

EPHEMERIS_TYPE = 0
CLASSIFICATION_TYPE = U
NORAD_CAT_ID   = 67027
ELEMENT_SET_NO = 999
REV_AT_EPOCH   = 138
BSTAR          = -.37682157E-2
MEAN_MOTION_DOT = -.138584E-1
MEAN_MOTION_DDOT = .56331618E-3

CCSDS_OMM_VERS = 2.0
CREATION_DATE  = 
ORIGINATOR     = 

OBJECT_NAME    = STARLINK-36132
OBJECT_ID      = 2025-293AB
CENTER_NAME    = EARTH
REF_FRAME      = TEME
TIME_SYSTEM    = UTC
MEAN_ELEMENT_THEORY = SGP/SGP4

EPOCH          = 2025-12-19T22:00:01.999584
MEAN_MOTION    = 15.94167519
ECCENTRICITY   = .00038711
INCLINATION    = 69.9939
RA_OF_ASC_NODE = 302.8842
ARG_OF_PERICENTER = 267.3402
MEAN_ANOMALY   = 249.7422

EPHEMERIS_TYPE = 0
CLASSIFICATION_TYPE = U
NORAD_CAT_ID   = 67028
ELEMENT_SET_NO = 999
REV_AT_EPOCH   = 138
BSTAR          = -.37909154E-2
MEAN_MOTION_DOT = -.1404795E-1
MEAN_MOTION_DDOT = .57847822E-3

CCSDS_OMM_VERS = 2.0
CREATION_DATE  = 
ORIGINATOR     = 

OBJECT_NAME    = STARLINK-36190
OBJECT_ID      = 2025-293AC
CENTER_NAME    = EARTH
REF_FRAME      = TEME
TIME_SYSTEM    = UTC
MEAN_ELEMENT_THEORY = SGP/SGP4

EPOCH          = 2025-12-19T22:00:01.999584
MEAN_MOTION    = 15.94110443
ECCENTRICITY   = .00038095
INCLINATION    = 69.9940
RA_OF_ASC_NODE = 302.8877
ARG_OF_PERICENTER = 266.4710
MEAN_ANOMALY   = 247.8823

EPHEMERIS_TYPE = 0
CLASSIFICATION_TYPE = U
NORAD_CAT_ID   = 67029
ELEMENT_SET_NO = 999
REV_AT_EPOCH   = 138
BSTAR          = -.37668569E-2
MEAN_MOTION_DOT = -.1391785E-1
MEAN_MOTION_DDOT = .56829764E-3

CCSDS_OMM_VERS = 2.0
CREATION_DATE  = 
ORIGINATOR     = 

OBJECT_NAME    = STARLINK-36138
OBJECT_ID      = 2025-294A
CENTER_NAME    = EARTH
REF_FRAME      = TEME
TIME_SYSTEM    = UTC
MEAN_ELEMENT_THEORY = SGP/SGP4

EPOCH          = 2025-12-19T22:00:01.999584
MEAN_MOTION    = 15.89484113
ECCENTRICITY   = .0001452
INCLINATION    = 42.9995
RA_OF_ASC_NODE = 138.3632
ARG_OF_PERICENTER = 279.3011
MEAN_ANOMALY   = 196.4461

EPHEMERIS_TYPE = 0
CLASSIFICATION_TYPE = U
NORAD_CAT_ID   = 67030
ELEMENT_SET_NO = 999
REV_AT_EPOCH   = 130
BSTAR          = -.48352681E-2
MEAN_MOTION_DOT = -.1295194E-1
MEAN_MOTION_DDOT = 0

CCSDS_OMM_VERS = 2.0
CREATION_DATE  = 
ORIGINATOR     = 

OBJECT_NAME    = STARLINK-36150
OBJECT_ID      = 2025-294B
CENTER_NAME    = EARTH
REF_FRAME      = TEME
TIME_SYSTEM    = UTC
MEAN_ELEMENT_THEORY = SGP/SGP4

EPOCH          = 2025-12-19T22:00:01.999584
MEAN_MOTION    = 15.89524653
ECCENTRICITY   = .0001627
INCLINATION    = 42.9996
RA_OF_ASC_NODE = 138.3592
ARG_OF_PERICENTER = 278.8588
MEAN_ANOMALY   = 198.3855

EPHEMERIS_TYPE = 0
CLASSIFICATION_TYPE = U
NORAD_CAT_ID   = 67031
ELEMENT_SET_NO = 999
REV_AT_EPOCH   = 146
BSTAR          = -.48339187E-2
MEAN_MOTION_DOT = -.1297379E-1
MEAN_MOTION_DDOT = 0

CCSDS_OMM_VERS = 2.0
CREATION_DATE  = 
ORIGINATOR     = 

OBJECT_NAME    = STARLINK-36131
OBJECT_ID      = 2025-294C
CENTER_NAME    = EARTH
REF_FRAME      = TEME
TIME_SYSTEM    = UTC
MEAN_ELEMENT_THEORY = SGP/SGP4

EPOCH          = 2025-12-19T22:00:01.999584
MEAN_MOTION    = 15.89615499
ECCENTRICITY   = .00015303
INCLINATION    = 42.9996
RA_OF_ASC_NODE = 138.3494
ARG_OF_PERICENTER = 277.5428
MEAN_ANOMALY   = 203.5469

EPHEMERIS_TYPE = 0
CLASSIFICATION_TYPE = U
NORAD_CAT_ID   = 67032
ELEMENT_SET_NO = 999
REV_AT_EPOCH   = 130
BSTAR          = -.48849242E-2
MEAN_MOTION_DOT = -.1314779E-1
MEAN_MOTION_DDOT = 0

CCSDS_OMM_VERS = 2.0
CREATION_DATE  = 
ORIGINATOR     = 

OBJECT_NAME    = STARLINK-36137
OBJECT_ID      = 2025-294D
CENTER_NAME    = EARTH
REF_FRAME      = TEME
TIME_SYSTEM    = UTC
MEAN_ELEMENT_THEORY = SGP/SGP4

EPOCH          = 2025-12-19T22:00:01.999584
MEAN_MOTION    = 15.89573887
ECCENTRICITY   = .00017044
INCLINATION    = 42.9997
RA_OF_ASC_NODE = 138.3546
ARG_OF_PERICENTER = 277.5577
MEAN_ANOMALY   = 201.5828

EPHEMERIS_TYPE = 0
CLASSIFICATION_TYPE = U
NORAD_CAT_ID   = 67033
ELEMENT_SET_NO = 999
REV_AT_EPOCH   = 130
BSTAR          = -.48772139E-2
MEAN_MOTION_DOT = -.1310605E-1
MEAN_MOTION_DDOT = 0

CCSDS_OMM_VERS = 2.0
CREATION_DATE  = 
ORIGINATOR     = 

OBJECT_NAME    = STARLINK-36140
OBJECT_ID      = 2025-294E
CENTER_NAME    = EARTH
REF_FRAME      = TEME
TIME_SYSTEM    = UTC
MEAN_ELEMENT_THEORY = SGP/SGP4

EPOCH          = 2025-12-19T22:00:01.999584
MEAN_MOTION    = 15.89660762
ECCENTRICITY   = .00015583
INCLINATION    = 42.9996
RA_OF_ASC_NODE = 138.3444
ARG_OF_PERICENTER = 275.1183
MEAN_ANOMALY   = 208.1015

EPHEMERIS_TYPE = 0
CLASSIFICATION_TYPE = U
NORAD_CAT_ID   = 67034
ELEMENT_SET_NO = 999
REV_AT_EPOCH   = 130
BSTAR          = -.49092554E-2
MEAN_MOTION_DOT = -.1323275E-1
MEAN_MOTION_DDOT = 0

CCSDS_OMM_VERS = 2.0
CREATION_DATE  = 
ORIGINATOR     = 

OBJECT_NAME    = STARLINK-36085
OBJECT_ID      = 2025-294F
CENTER_NAME    = EARTH
REF_FRAME      = TEME
TIME_SYSTEM    = UTC
MEAN_ELEMENT_THEORY = SGP/SGP4

EPOCH          = 2025-12-19T22:00:01.999584
MEAN_MOTION    = 15.89743703
ECCENTRICITY   = .00014661
INCLINATION    = 42.9998
RA_OF_ASC_NODE = 138.3332
ARG_OF_PERICENTER = 275.3177
MEAN_ANOMALY   = 212.2313

EPHEMERIS_TYPE = 0
CLASSIFICATION_TYPE = U
NORAD_CAT_ID   = 67035
ELEMENT_SET_NO = 999
REV_AT_EPOCH   = 130
BSTAR          = -.49277374E-2
MEAN_MOTION_DOT = -.1332583E-1
MEAN_MOTION_DDOT = 0

